YAOGAN-47               
1 66988U 25289A   25354.09842060  .00002520  00000+0  10946-3 0  9992
2 66988  97.5265  59.2376 0000646  91.4531 268.6780 15.23243112  1668
CZ-4B R/B               
1 66989U 25289B   25359.65914660  .00132054  73519-5  61040-3 0  9994
2 66989  97.5227  65.9579 0139095 313.9156  45.0690 15.70391772  2590
TJS-22                  
1 66990U 25290A   25359.34741573  .00000015  00000+0  00000+0 0  9990
2 66990   1.9567 285.0378 0003394 343.2067  17.3836  1.00271569   286
CZ-3B R/B               
1 66991U 25290B   25349.72468800  .00057911 -20514-6  75879-3 0  9998
2 66991  28.4636 300.4666 7240884 182.7002 168.6250  2.38388611   165
2025-292A               
1 66993U 25292A   25359.90882141  .00004242  00000+0  30594-3 0  9995
2 66993  97.6493  72.3309 0014676 225.0249 134.9788 15.04592328  2376
2025-292B               
1 66994U 25292B   25359.90835213  .00004794  00000+0  34476-3 0  9999
2 66994  97.6502  72.3331 0014465 225.3503 134.6545 15.04641960  2370
2025-292C               
1 66995U 25292C   25359.24313955  .00005751  00000+0  41226-3 0  9996
2 66995  97.6495  71.6733 0014688 227.9665 132.0312 15.04668363  2273
2025-292D               
1 66996U 25292D   25359.24277807  .00003792  00000+0  27339-3 0  9994
2 66996  97.6491  71.6729 0013797 230.5158 129.4848 15.04678565  2271
2025-292E               
1 66997U 25292E   25359.90691125  .00004378  00000+0  31410-3 0  9997
2 66997  97.6509  72.3363 0014260 229.2639 130.7350 15.04775651  2366
2025-292F               
1 66998U 25292F   25359.90519292  .00005880  00000+0  41806-3 0  9991
2 66998  97.6529  72.3422 0015386 230.1658 129.8215 15.04960096  2376
2025-292G               
1 66999U 25292G   25359.97101477  .00006002  00000+0  42595-3 0  9994
2 66999  97.6537  72.4105 0014901 231.8882 128.1001 15.05025333  2387
2025-292H               
1 67000U 25292H   25359.97088131  .00007363  00000+0  52101-3 0  9994
2 67000  97.6550  72.4132 0014855 231.7370 128.2520 15.05058465  2250
